NORAD_CAT_ID,OBJECT_NAME,OBJECT_TYPE,EPOCH,MEAN_MOTION,ECCENTRICITY,INCLINATION,RA_OF_ASC_NODE,ARG_OF_PERICENTER,MEAN_ANOMALY,BSTAR,MEAN_MOTION_DOT,MEAN_MOTION_DDOT,TLE_LINE0,TLE_LINE1,TLE_LINE2,SEMIMAJOR_AXIS,PERIOD,APOGEE,PERIGEE,DECAYED
52703.0,STARLINK-4020,PAYLOAD,2024-04-20 21:41:45,15.08838144,0.0001412,53.2187,341.7233,136.1508,223.9596,8.2005e-05,1.017e-05,0.0,0 STARLINK-4020,1 52703U 22053AZ  24111.90400439  .00001017  00000-0  82005-4 0  9995,2 52703  53.2187 341.7233 0001412 136.1508 223.9596 15.08838144106207,6917.886,95.438,540.728,538.774,0.0
52703.0,STARLINK-4020,PAYLOAD,2024-04-21 00:52:33,15.08823993,0.0001316,53.2189,341.1299,86.7232,273.3911,-3.2627e-05,-8.07e-06,0.0,0 STARLINK-4020,1 52703U 22053AZ  24112.03649940 -.00000807  00000-0 -32627-4 0  9995,2 52703  53.2189 341.1299 0001316  86.7232 273.3911 15.08823993107074,6917.929,95.439,540.705,538.884,0.0
52703.0,STARLINK-4020,PAYLOAD,2024-04-21 19:57:11,15.08844434,0.0001504,53.2193,337.5647,69.5948,290.5206,-0.00015399,-2.738e-05,0.0,0 STARLINK-4020,1 52703U 22053AZ  24112.83137755 -.00002738  00000-0 -15399-3 0  9990,2 52703  53.2193 337.5647 0001504  69.5948 290.5206 15.08844434107191,6917.867,95.437,540.772,538.691,0.0
52703.0,STARLINK-4020,PAYLOAD,2024-04-21 21:32:33,15.08848745,0.0001568,53.2201,337.2652,81.2325,278.8845,-8.9889e-05,-1.719e-05,0.0,0 STARLINK-4020,1 52703U 22053AZ  24112.89761211 -.00001719  00000-0 -89889-4 0  9990,2 52703  53.2201 337.2652 0001568  81.2325 278.8845 15.08848745106358,6917.854,95.437,540.803,538.634,0.0
52703.0,STARLINK-4020,PAYLOAD,2024-04-22 00:43:19,15.0885426,0.0001389,53.2195,336.6662,86.4829,273.6322,-9.6108e-05,-1.818e-05,0.0,0 STARLINK-4020,1 52703U 22053AZ  24113.03008717 -.00001818  00000-0 -96108-4 0  9994,2 52703  53.2195 336.6662 0001389  86.4829 273.6322 15.08854260107220,6917.837,95.437,540.663,538.741,0.0
52703.0,STARLINK-4020,PAYLOAD,2024-04-22 19:47:57,15.0883316,0.0001856,53.2199,333.0953,127.6025,232.5135,0.00019069,2.747e-05,0.0,0 STARLINK-4020,1 52703U 22053AZ  24113.82497117  .00002747  00000-0  19069-3 0  9997,2 52703  53.2199 333.0953 0001856 127.6025 232.5135 15.08833160107348,6917.901,95.438,541.05,538.482,0.0
52703.0,STARLINK-4020,PAYLOAD,2024-04-23 00:34:07,15.08829032,0.000146,53.2194,332.2041,90.865,269.251,0.00018702,2.689e-05,0.0,0 STARLINK-4020,1 52703U 22053AZ  24114.02369683  .00002689  00000-0  18702-3 0  9994,2 52703  53.2194 332.2041 0001460  90.8650 269.2510 15.08829032107378,6917.914,95.438,540.789,538.769,0.0
52703.0,STARLINK-4020,PAYLOAD,2024-04-23 21:14:08,15.08842039,0.0001388,53.219,328.3379,97.354,262.7609,2.6192e-05,1.29e-06,0.0,0 STARLINK-4020,1 52703U 22053AZ  24114.88481502  .00000129  00000-0  26192-4 0  9993,2 52703  53.2190 328.3379 0001388  97.3540 262.7609 15.08842039106652,6917.874,95.437,540.699,538.779,0.0
52703.0,STARLINK-4020,PAYLOAD,2024-04-24 00:24:54,15.08844017,0.0001363,53.2188,327.7425,96.99,263.1247,3.8038e-05,3.18e-06,0.0,0 STARLINK-4020,1 52703U 22053AZ  24115.01729298  .00000318  00000-0  38038-4 0  9998,2 52703  53.2188 327.7425 0001363  96.9900 263.1247 15.08844017107520,6917.868,95.437,540.676,538.79,0.0
52703.0,STARLINK-4020,PAYLOAD,2024-04-24 19:29:32,15.08836552,0.0001338,53.2191,324.1733,96.2768,263.8376,6.267e-05,7.1e-06,0.0,0 STARLINK-4020,1 52703U 22053AZ  24115.81217736  .00000710  00000-0  62670-4 0  9990,2 52703  53.2191 324.1733 0001338  96.2768 263.8376 15.08836552107642,6917.891,95.438,540.682,538.83,0.0
52703.0,STARLINK-4020,PAYLOAD,2024-04-25 20:55:42,15.08827624,0.0001237,53.2186,319.4146,90.6597,269.4536,0.00019581,2.829e-05,0.0,0 STARLINK-4020,1 52703U 22053AZ  24116.87202121  .00002829  00000-0  19581-3 0  9994,2 52703  53.2186 319.4146 0001237  90.6597 269.4536 15.08827624107805,6917.918,95.438,540.639,538.927,0.0
52703.0,STARLINK-4020,PAYLOAD,2024-04-25 22:31:05,15.08830366,0.0001265,53.2188,319.1173,96.7573,263.3563,0.00018329,2.63e-05,0.0,0 STARLINK-4020,1 52703U 22053AZ  24116.93826000  .00002630  00000-0  18329-3 0  9998,2 52703  53.2188 319.1173 0001265  96.7573 263.3563 15.08830366106962,6917.91,95.438,540.65,538.9,0.0
52703.0,STARLINK-4020,PAYLOAD,2024-04-26 06:28:00,15.08855745,0.0001151,53.2181,317.6351,72.3619,287.7499,9.3512e-05,1.201e-05,0.0,0 STARLINK-4020,1 52703U 22053AZ  24117.26944465  .00001201  00000-0  93512-4 0  9992,2 52703  53.2181 317.6351 0001151  72.3619 287.7499 15.08855745107867,6917.832,95.437,540.494,538.901,0.0
52703.0,STARLINK-4020,PAYLOAD,2024-04-26 20:46:29,15.08843722,0.0001212,53.2189,314.9606,91.9482,268.1649,0.00011714,1.577e-05,0.0,0 STARLINK-4020,1 52703U 22053AZ  24117.86561432  .00001577  00000-0  11714-3 0  9996,2 52703  53.2189 314.9606 0001212  91.9482 268.1649 15.08843722107100,6917.869,95.437,540.572,538.896,0.0
52703.0,STARLINK-4020,PAYLOAD,2024-04-27 06:18:47,15.08850274,0.0001068,53.2182,313.1764,89.8032,270.3083,0.00017511,2.501e-05,0.0,0 STARLINK-4020,1 52703U 22053AZ  24118.26304791  .00002501  00000-0  17511-3 0  9993,2 52703  53.2182 313.1764 0001068  89.8032 270.3083 15.08850274107168,6917.849,95.437,540.453,538.975,0.0
52703.0,STARLINK-4020,PAYLOAD,2024-04-27 20:37:16,15.08834315,0.0001173,53.2188,310.4997,104.295,255.8173,-8.9154e-06,-4.3e-06,0.0,0 STARLINK-4020,1 52703U 22053AZ  24118.85922300 -.00000430  00000-0 -89154-5 0  9995,2 52703  53.2188 310.4997 0001173 104.2950 255.8173 15.08834315108101,6917.898,95.438,540.574,538.951,0.0
52703.0,STARLINK-4020,PAYLOAD,2024-04-27 22:12:39,15.08839488,0.000117,53.218,310.2004,110.7134,249.3983,3.0879e-05,2.04e-06,0.0,0 STARLINK-4020,1 52703U 22053AZ  24118.92545837  .00000204  00000-0  30879-4 0  9995,2 52703  53.2180 310.2004 0001170 110.7134 249.3983 15.08839488107262,6917.882,95.438,540.556,538.938,0.0
52703.0,STARLINK-4020,PAYLOAD,2024-04-28 12:31:07,15.08841836,0.0002233,53.218,307.5276,83.9003,276.2244,0.00014714,2.054e-05,0.0,0 STARLINK-4020,1 52703U 22053AZ  24119.52161516  .00002054  00000-0  14714-3 0  9994,2 52703  53.2180 307.5276 0002233  83.9003 276.2244 15.08841836108203,6917.875,95.437,541.285,538.195,0.0
52703.0,STARLINK-4020,PAYLOAD,2024-04-28 18:52:40,15.08834922,0.0001624,53.2198,306.3378,92.8579,267.2599,8.7021e-05,1.097e-05,0.0,0 STARLINK-4020,1 52703U 22053AZ  24119.78658012  .00001097  00000-0  87021-4 0  9992,2 52703  53.2198 306.3378 0001624  92.8579 267.2599 15.08834922108247,6917.896,95.438,540.884,538.637,0.0
52703.0,STARLINK-4020,PAYLOAD,2024-04-29 12:21:53,15.08852565,0.0002892,53.2178,303.067,89.8236,270.3087,0.00028799,4.3e-05,0.0,0 STARLINK-4020,1 52703U 22053AZ  24120.51520142  .00004300  00000-0  28799-3 0  9993,2 52703  53.2178 303.0670 0002892  89.8236 270.3087 15.08852565108350,6917.842,95.437,541.708,537.706,0.0
52703.0,STARLINK-4020,PAYLOAD,2024-04-29 18:43:28,15.0882169,0.0001081,53.2186,301.8785,103.5439,256.5674,3.5006e-05,2.69e-06,0.0,0 STARLINK-4020,1 52703U 22053AZ  24120.78018568  .00000269  00000-0  35006-4 0  9996,2 52703  53.2186 301.8785 0001081 103.5439 256.5674 15.08821690108397,6917.936,95.439,540.549,539.054,0.0
52703.0,STARLINK-4020,PAYLOAD,2024-04-30 18:34:14,15.0883638,0.0001302,53.2192,297.4183,97.4474,262.6666,4.8392e-05,4.82e-06,0.0,0 STARLINK-4020,1 52703U 22053AZ  24121.77378041  .00000482  00000-0  48392-4 0  9990,2 52703  53.2192 297.4183 0001302  97.4474 262.6666 15.08836380108540,6917.891,95.438,540.657,538.856,0.0
52703.0,STARLINK-4020,PAYLOAD,2024-04-30 21:45:00,15.08840006,0.0001238,53.2183,296.8237,95.4224,264.6909,9.0108e-05,1.146e-05,0.0,0 STARLINK-4020,1 52703U 22053AZ  24121.90625751  .00001146  00000-0  90108-4 0  9998,2 52703  53.2183 296.8237 0001238  95.4224 264.6909 15.08840006107712,6917.88,95.438,540.602,538.889,0.0
52703.0,STARLINK-4020,PAYLOAD,2024-05-01 04:06:32,15.08846996,0.0001133,53.2191,295.6347,92.5684,267.5438,7.6919e-05,9.37e-06,0.0,0 STARLINK-4020,1 52703U 22053AZ  24122.17121307  .00000937  00000-0  76919-4 0  9997,2 52703  53.2191 295.6347 0001133  92.5684 267.5438 15.08846996108604,6917.859,95.437,540.508,538.94,0.0
52703.0,STARLINK-4020,PAYLOAD,2024-05-01 10:28:05,15.08835036,0.0001353,53.2197,294.445,102.1379,257.9765,0.00020127,2.916e-05,0.0,0 STARLINK-4020,1 52703U 22053AZ  24122.43617604  .00002916  00000-0  20127-3 0  9994,2 52703  53.2197 294.4450 0001353 102.1379 257.9765 15.08835036108648,6917.896,95.438,540.697,538.825,0.0
52703.0,STARLINK-4020,PAYLOAD,2024-05-01 18:25:02,15.08822117,0.0001304,53.2194,292.9581,103.3829,256.7308,0.00029041,4.335e-05,0.0,0 STARLINK-4020,1 52703U 22053AZ  24122.76738469  .00004335  00000-0  29041-3 0  9994,2 52703  53.2194 292.9581 0001304 103.3829 256.7308 15.08822117108693,6917.935,95.439,540.702,538.898,0.0
52703.0,STARLINK-4020,PAYLOAD,2024-05-02 03:57:20,15.08842033,0.0001665,53.2198,291.1728,95.4591,264.6591,0.0001327,1.825e-05,0.0,0 STARLINK-4020,1 52703U 22053AZ  24123.16481554  .00001825  00000-0  13270-3 0  9997,2 52703  53.2198 291.1728 0001665  95.4591 264.6591 15.08842033108756,6917.874,95.437,540.891,538.587,0.0
52703.0,STARLINK-4020,PAYLOAD,2024-05-02 15:05:03,15.08828372,0.000131,53.2187,289.0912,91.7035,268.4107,-8.0647e-05,-1.571e-05,0.0,0 STARLINK-4020,1 52703U 22053AZ  24123.62851181 -.00001571  00000-0 -80647-4 0  9998,2 52703  53.2187 289.0912 0001310  91.7035 268.4107 15.08828372107972,6917.916,95.438,540.687,538.875,0.0
52703.0,STARLINK-4020,PAYLOAD,2024-05-02 19:51:12,15.08832447,0.0001372,53.2186,288.1998,93.5676,266.5473,-1.9815e-05,-6.03e-06,0.0,0 STARLINK-4020,1 52703U 22053AZ  24123.82722853 -.00000603  00000-0 -19815-4 0  9997,2 52703  53.2186 288.1998 0001372  93.5676 266.5473 15.08832447108855,6917.903,95.438,540.718,538.819,0.0
52703.0,STARLINK-4020,PAYLOAD,2024-05-03 03:48:07,15.08842963,0.0001443,53.2197,286.7133,94.8455,265.2702,2.7615e-05,1.52e-06,0.0,0 STARLINK-4020,1 52703U 22053AZ  24124.15842081  .00000152  00000-0  27615-4 0  9994,2 52703  53.2197 286.7133 0001443  94.8455 265.2702 15.08842963108901,6917.871,95.437,540.735,538.738,0.0
